{"type": "FeatureCollection", "features": [ {"type": "Feature", "properties": {"norad_id": 30928, "name": "FENGYUN 1C DEB", "group": "fengyun-1c-debris", "lat": 2.3474357604724077, "lon": 87.3898594796701, "alt_km": 839.5626136269475, "timestamp": "2025-12-26T11:25:45.473612+00:00", "meta": {"OBJECT_NAME": "FENGYUN 1C DEB", "OBJECT_ID": "1999-025AZS", "EPOCH": "2025-12-25T18:01:02.783424", "MEAN_MOTION": 13.22257134, "ECCENTRICITY": 0.04498404, "INCLINATION": 98.8822, "RA_OF_ASC_NODE": 87.1382, "ARG_OF_PERICENTER": 359.9783, "MEAN_ANOMALY": 150.4632, "EPHEMERIS_TYPE": 0, "CLASSIFICATION_TYPE": "U", "NORAD_CAT_ID": 30928, "ELEMENT_SET_NO": 999, "REV_AT_EPOCH": 90520, "BSTAR": 0.0012281189, "MEAN_MOTION_DOT": 8.36e-06, "MEAN_MOTION_DDOT": 0}, "tle": {"line1": "1 30928U 99025AZS 25359.75072666  .00000836  00000+0  12281-2 0  9992", "line2": "2 30928  98.8822  87.1382 0449840 359.9783 150.4632 13.22257134905200"}}, "geometry": {"type": "Point", "coordinates": [87.3898594796701, 2.3474357604724077]}}, {"type": "Feature", "properties": {"norad_id": 30930, "name": "FENGYUN 1C DEB", "group": "fengyun-1c-debris", "lat": 68.39495773799061, "lon": 6.765585533397139, "alt_km": 682.2702335977219, "timestamp": "2025-12-26T11:25:45.473620+00:00", "meta": {"OBJECT_NAME": "FENGYUN 1C DEB", "OBJECT_ID": "1999-025AZU", "EPOCH": "2025-12-26T01:20:20.656896", "MEAN_MOTION": 14.37418558, "ECCENTRICITY": 0.0109622, "INCLINATION": 98.2142, "RA_OF_ASC_NODE": 27.7556, "ARG_OF_PERICENTER": 66.7393, "MEAN_ANOMALY": 348.8311, "EPHEMERIS_TYPE": 0, "CLASSIFICATION_TYPE": "U", "NORAD_CAT_ID": 30930, "ELEMENT_SET_NO": 999, "REV_AT_EPOCH": 98523, "BSTAR": 0.0003322, "MEAN_MOTION_DOT": 1.022e-05, "MEAN_MOTION_DDOT": 0}, "tle": {"line1": "1 30930U 99025AZU 25360.05579464  .00001022  00000+0  33220-3 0  9993", "line2": "2 30930  98.2142  27.7556 0109622  66.7393 348.8311 14.37418558985230"}}, "geometry": {"type": "Point", "coordinates": [6.765585533397139, 68.39495773799061]}}, {"type": "Feature", "properties": {"norad_id": 30931, "name": "FENGYUN 1C DEB", "group": "fengyun-1c-debris", "lat": -66.31224868954577, "lon": 79.68101509647677, "alt_km": 873.8545046335348, "timestamp": "2025-12-26T11:25:45.473629+00:00", "meta": {"OBJECT_NAME": "FENGYUN 1C DEB", "OBJECT_ID": "1999-025AZV", "EPOCH": "2025-12-26T03:27:29.507328", "MEAN_MOTION": 14.015361, "ECCENTRICITY": 0.0092592, "INCLINATION": 99.1701, "RA_OF_ASC_NODE": 57.7433, "ARG_OF_PERICENTER": 4.4832, "MEAN_ANOMALY": 53.6493, "EPHEMERIS_TYPE": 0, "CLASSIFICATION_TYPE": "U", "NORAD_CAT_ID": 30931, "ELEMENT_SET_NO": 999, "REV_AT_EPOCH": 96113, "BSTAR": 0.00052322, "MEAN_MOTION_DOT": 7.76e-06, "MEAN_MOTION_DDOT": 0}, "tle": {"line1": "1 30931U 99025AZV 25360.14409152  .00000776  00000+0  52322-3 0  9999", "line2": "2 30931  99.1701  57.7433 0092592   4.4832  53.6493 14.01536100961133"}}, "geometry": {"type": "Point", "coordinates": [79.68101509647677, -66.31224868954577]}}, {"type": "Feature", "properties": {"norad_id": 30932, "name": "FENGYUN 1C DEB", "group": "fengyun-1c-debris", "lat": 34.29081867903633, "lon": -72.51391283760923, "alt_km": 831.2636159038666, "timestamp": "2025-12-26T11:25:45.473641+00:00", "meta": {"OBJECT_NAME": "FENGYUN 1C DEB", "OBJECT_ID": "1999-025AZW", "EPOCH": "2025-12-21T06:43:56.374176", "MEAN_MOTION": 14.26904015, "ECCENTRICITY": 0.00571492, "INCLINATION": 98.9092, "RA_OF_ASC_NODE": 288.3376, "ARG_OF_PERICENTER": 269.3371, "MEAN_ANOMALY": 90.126, "EPHEMERIS_TYPE": 0, "CLASSIFICATION_TYPE": "U", "NORAD_CAT_ID": 30932, "ELEMENT_SET_NO": 999, "REV_AT_EPOCH": 96516, "BSTAR": 0.0018186282, "MEAN_MOTION_DOT": 4.449e-05, "MEAN_MOTION_DDOT": 0}, "tle": {"line1": "1 30932U 99025AZW 25355.28051359  .00004449  00000+0  18186-2 0  9991", "line2": "2 30932  98.9092 288.3376 0057149 269.3371  90.1260 14.26904015965167"}}, "geometry": {"type": "Point", "coordinates": [-72.51391283760923, 34.29081867903633]}}, {"type": "Feature", "properties": {"norad_id": 30933, "name": "FENGYUN 1C DEB", "group": "fengyun-1c-debris", "lat": 55.66621343111421, "lon": -29.832074256581915, "alt_km": 800.516591275179, "timestamp": "2025-12-26T11:25:45.473652+00:00", "meta": {"OBJECT_NAME": "FENGYUN 1C DEB", "OBJECT_ID": "1999-025AZX", "EPOCH": "2025-12-25T05:39:04.124160", "MEAN_MOTION": 14.36828858, "ECCENTRICITY": 0.0075314, "INCLINATION": 99.0487, "RA_OF_ASC_NODE": 342.3567, "ARG_OF_PERICENTER": 286.6966, "MEAN_ANOMALY": 195.1124, "EPHEMERIS_TYPE": 0, "CLASSIFICATION_TYPE": "U", "NORAD_CAT_ID": 30933, "ELEMENT_SET_NO": 999, "REV_AT_EPOCH": 96051, "BSTAR": 0.0049802, "MEAN_MOTION_DOT": 0.00015183, "MEAN_MOTION_DDOT": 0}, "tle": {"line1": "1 30933U 99025AZX 25359.23546440  .00015183  00000+0  49802-2 0  9997", "line2": "2 30933  99.0487 342.3567 0075314 286.6966 195.1124 14.36828858960517"}}, "geometry": {"type": "Point", "coordinates": [-29.832074256581915, 55.66621343111421]}}, {"type": "Feature", "properties": {"norad_id": 30934, "name": "FENGYUN 1C DEB", "group": "fengyun-1c-debris", "lat": -53.63842185663189, "lon": 43.69489944382741, "alt_km": 1343.1952529527525, "timestamp": "2025-12-26T11:25:45.473661+00:00", "meta": {"OBJECT_NAME": "FENGYUN 1C DEB", "OBJECT_ID": "1999-025AZY", "EPOCH": "2025-12-25T21:47:57.175296", "MEAN_MOTION": 13.46790534, "ECCENTRICITY": 0.0341378, "INCLINATION": 98.7654, "RA_OF_ASC_NODE": 235.293, "ARG_OF_PERICENTER": 48.0114, "MEAN_ANOMALY": 314.9569, "EPHEMERIS_TYPE": 0, "CLASSIFICATION_TYPE": "U", "NORAD_CAT_ID": 30934, "ELEMENT_SET_NO": 999, "REV_AT_EPOCH": 91885, "BSTAR": 0.0021666, "MEAN_MOTION_DOT": 1.834e-05, "MEAN_MOTION_DDOT": 0}, "tle": {"line1": "1 30934U 99025AZY 25359.90830064  .00001834  00000+0  21666-2 0  9996", "line2": "2 30934  98.7654 235.2930 0341378  48.0114 314.9569 13.46790534918858"}}, "geometry": {"type": "Point", "coordinates": [43.69489944382741, -53.63842185663189]}}, {"type": "Feature", "properties": {"norad_id": 30936, "name": "FENGYUN 1C DEB", "group": "fengyun-1c-debris", "lat": 81.33996244257851, "lon": -66.61794294297991, "alt_km": 837.3621402282643, "timestamp": "2025-12-26T11:25:45.473671+00:00", "meta": {"OBJECT_NAME": "FENGYUN 1C DEB", "OBJECT_ID": "1999-025BAA", "EPOCH": "2025-12-25T22:04:31.178784", "MEAN_MOTION": 14.23402013, "ECCENTRICITY": 0.0046149, "INCLINATION": 98.5806, "RA_OF_ASC_NODE": 30.3937, "ARG_OF_PERICENTER": 251.6756, "MEAN_ANOMALY": 230.0536, "EPHEMERIS_TYPE": 0, "CLASSIFICATION_TYPE": "U", "NORAD_CAT_ID": 30936, "ELEMENT_SET_NO": 999, "REV_AT_EPOCH": 97320, "BSTAR": 0.00046152, "MEAN_MOTION_DOT": 1.016e-05, "MEAN_MOTION_DDOT": 0}, "tle": {"line1": "1 30936U 99025BAA 25359.91980531  .00001016  00000+0  46152-3 0  9994", "line2": "2 30936  98.5806  30.3937 0046149 251.6756 230.0536 14.23402013973200"}}, "geometry": {"type": "Point", "coordinates": [-66.61794294297991, 81.33996244257851]}}, {"type": "Feature", "properties": {"norad_id": 30937, "name": "FENGYUN 1C DEB", "group": "fengyun-1c-debris", "lat": -10.658170813707333, "lon": 54.370780003042086, "alt_km": 864.1539718078684, "timestamp": "2025-12-26T11:25:45.473680+00:00", "meta": {"OBJECT_NAME": "FENGYUN 1C DEB", "OBJECT_ID": "1999-025BAB", "EPOCH": "2025-12-26T03:11:05.872704", "MEAN_MOTION": 13.95588353, "ECCENTRICITY": 0.0075192, "INCLINATION": 99.087, "RA_OF_ASC_NODE": 52.3062, "ARG_OF_PERICENTER": 16.809, "MEAN_ANOMALY": 47.9807, "EPHEMERIS_TYPE": 0, "CLASSIFICATION_TYPE": "U", "NORAD_CAT_ID": 30937, "ELEMENT_SET_NO": 999, "REV_AT_EPOCH": 95903, "BSTAR": -3.6351e-05, "MEAN_MOTION_DOT": -9.5e-07, "MEAN_MOTION_DDOT": 0}, "tle": {"line1": "1 30937U 99025BAB 25360.13270686 -.00000095  00000+0 -36351-4 0  9993", "line2": "2 30937  99.0870  52.3062 0075192  16.8090  47.9807 13.95588353959034"}}, "geometry": {"type": "Point", "coordinates": [54.370780003042086, -10.658170813707333]}}, {"type": "Feature", "properties": {"norad_id": 30938, "name": "FENGYUN 1C DEB", "group": "fengyun-1c-debris", "lat": -8.094245290043208, "lon": -167.6681875505971, "alt_km": 843.7638240765436, "timestamp": "2025-12-26T11:25:45.473689+00:00", "meta": {"OBJECT_NAME": "FENGYUN 1C DEB", "OBJECT_ID": "1999-025BAC", "EPOCH": "2025-12-26T00:41:32.773056", "MEAN_MOTION": 14.19838538, "ECCENTRICITY": 0.00454, "INCLINATION": 98.5904, "RA_OF_ASC_NODE": 13.1295, "ARG_OF_PERICENTER": 304.8495, "MEAN_ANOMALY": 118.2905, "EPHEMERIS_TYPE": 0, "CLASSIFICATION_TYPE": "U", "NORAD_CAT_ID": 30938, "ELEMENT_SET_NO": 999, "REV_AT_EPOCH": 97308, "BSTAR": 0.00032897, "MEAN_MOTION_DOT": 6.62e-06, "MEAN_MOTION_DDOT": 0}, "tle": {"line1": "1 30938U 99025BAC 25360.02885154  .00000662  00000+0  32897-3 0  9992", "line2": "2 30938  98.5904  13.1295 0045400 304.8495 118.2905 14.19838538973080"}}, "geometry": {"type": "Point", "coordinates": [-167.6681875505971, -8.094245290043208]}}, {"type": "Feature", "properties": {"norad_id": 30940, "name": "FENGYUN 1C DEB", "group": "fengyun-1c-debris", "lat": -79.64052431257319, "lon": 124.11791707346931, "alt_km": 857.8124882591146, "timestamp": "2025-12-26T11:25:45.473697+00:00", "meta": {"OBJECT_NAME": "FENGYUN 1C DEB", "OBJECT_ID": "1999-025BAE", "EPOCH": "2025-12-22T05:52:00.054912", "MEAN_MOTION": 14.08319135, "ECCENTRICITY": 0.00407229, "INCLINATION": 98.6214, "RA_OF_ASC_NODE": 356.1653, "ARG_OF_PERICENTER": 336.7041, "MEAN_ANOMALY": 84.9821, "EPHEMERIS_TYPE": 0, "CLASSIFICATION_TYPE": "U", "NORAD_CAT_ID": 30940, "ELEMENT_SET_NO": 999, "REV_AT_EPOCH": 96266, "BSTAR": 0.00045494688, "MEAN_MOTION_DOT": 7.42e-06, "MEAN_MOTION_DDOT": 0}, "tle": {"line1": "1 30940U 99025BAE 25356.24444508  .00000742  00000+0  45495-3 0  9995", "line2": "2 30940  98.6214 356.1653 0040722 336.7041  84.9821 14.08319135962662"}}, "geometry": {"type": "Point", "coordinates": [124.11791707346931, -79.64052431257319]}}]}